ONEWEB-0435             
1 51632U 22012L   24275.12576155  .00000430  00000+0  11949-2 0  9998
2 51632  87.8976 160.4919 0001926  88.3825 271.7523 13.10373985127586
ONEWEB-0436             
1 51633U 22012M   24275.32065302 -.00000582  00000+0 -15333-2 0  9999
2 51633  87.9108 130.1292 0001925  85.6736 274.4615 13.17652276131524
ONEWEB-0438             
1 51634U 22012N   24275.41457513 -.00000434  00000+0 -12794-2 0  9993
2 51634  87.8973 160.4355 0001584  71.3099 288.8201 13.10375262127654
ONEWEB-0439             
1 51635U 22012P   24275.41789473 -.00000292  00000+0 -87258-3 0  9997
2 51635  87.8974 160.4204 0001729  77.8081 282.3240 13.10375323127630
ONEWEB-0442             
1 51636U 22012Q   24275.61679775 -.00000014  00000+0 -68953-4 0  9997
2 51636  87.9129 130.1080 0001542  55.8558 304.2720 13.17647749131552
ONEWEB-0443             
1 51637U 22012R   24275.33245545  .00000410  00000+0  10232-2 0  9994
2 51637  87.9111 130.1751 0001316  87.1323 272.9959 13.17648525131565
ONEWEB-0444             
1 51638U 22012S   24275.40792897 -.00000484  00000+0 -14216-2 0  9999
2 51638  87.8965 160.4389 0001719  82.0492 278.0830 13.10372893127647
ONEWEB-0445             
1 51639U 22012T   24275.42952795  .00000156  00000+0  40951-3 0  9997
2 51639  87.8950 160.4024 0001656  67.1331 292.9971 13.10371639127653
